STARLINK-31823          
1 59794U 24093N   26067.69377638  .00000298  00000+0  20373-4 0  9999
2 59794  42.9987 214.4702 0002017 273.8979  86.1642 15.27589278102543
TEVEL2-4                
1 63213U 25052D   26068.69417973  .00020990  00000+0  70363-3 0  9998
2 63213  97.4009 325.1237 0004733  95.3468 264.8313 15.30925813 54879
